FLOCK 4Q-36             
1 58274U 23174U   26061.83513632  .00032850  00000+0  57157-3 0  9994
2 58274  97.3904 150.9225 0007650 167.7672 192.3767 15.50690459129313
FLOCK 4Q-12             
1 58275U 23174V   26061.78092079  .00078328  00000+0  13515-2 0  9995
2 58275  97.3899 150.7499 0006061 173.9595 186.1731 15.50730179129323
FLOCK 4Q-28             
1 58280U 23174AA  26061.71796820  .00034880  00000+0  65492-3 0  9996
2 58280  97.3925 149.9347 0007280 173.9095 186.2246 15.48508263129236
FLOCK 4Q-27             
1 58282U 23174AC  26061.77835883  .00035765  00000+0  67196-3 0  9993
2 58282  97.3867 149.5418 0006713 168.8852 191.2548 15.48489142129259
FLOCK 4Q-26             
1 58284U 23174AE  26061.76079161  .00034781  00000+0  61356-3 0  9992
2 58284  97.3919 150.9342 0007176 172.3071 187.8292 15.50292634129302
FLOCK 4Q-31             
1 58285U 23174AF  26061.78984638  .00041870  00000+0  75080-3 0  9995
2 58285  97.3962 150.6068 0007798 174.0423 186.0922 15.49783910129269
FLOCK 4Q-30             
1 58286U 23174AG  26061.77880550  .00041592  00000+0  73996-3 0  9998
2 58286  97.3963 150.7749 0007716 169.1863 190.9556 15.50010199129273
PELICAN-1               
1 58296U 23174AS  26061.78807313  .00041868  00000+0  45528-3 0  9992
2 58296  97.4032 156.2135 0008833 253.4736 106.5552 15.63306512129482
FLOCK 4Q-25             
1 58303U 23174AZ  26061.77872071  .00056986  00000+0  82317-3 0  9997
2 58303  97.3880 151.6053 0005366 156.4156 203.7345 15.55758498129390
FLOCK 4Q-29             
1 58304U 23174BA  26061.93244019  .00038832  00000+0  71633-3 0  9990
2 58304  97.3949 150.5381 0007970 161.6605 198.4935 15.48988331129274
FLOCK 4Q-22             
1 58306U 23174BC  26061.77503047  .00041308  00000+0  69704-3 0  9991
2 58306  97.3866 150.5399 0006830 165.1619 194.9835 15.51515602129328
FLOCK 4Q-23             
1 58307U 23174BD  26061.81017907  .00051259  00000+0  77344-3 0  9997
2 58307  97.3974 152.0957 0007073 162.4707 197.6793 15.54577343129364
FLOCK 4Q-33             
1 58308U 23174BE  26061.95090394  .00036017  00000+0  62719-3 0  9999
2 58308  97.3891 150.6627 0007480 155.6815 204.4791 15.50650289129336
FLOCK 4Q-35             
1 58309U 23174BF  26061.93331796  .00036707  00000+0  66228-3 0  9997
2 58309  97.3913 150.8189 0008297 168.5317 191.6125 15.49631141129314
FLOCK 4Q-34             
1 58316U 23174BN  26061.75777397  .00051650  00000+0  77439-3 0  9996
2 58316  97.3869 151.4477 0006894 163.4579 196.6901 15.54752135129369
FLOCK 4Q-7              
1 58318U 23174BQ  26061.83589072  .00036496  00000+0  68143-3 0  9991
2 58318  97.3947 150.2510 0008178 160.3978 199.7589 15.48652313129253
