[{"OBJECT_NAME":"FLOCK 4Q-36","OBJECT_ID":"2023-174U","EPOCH":"2026-03-02T20:02:35.778048","MEAN_MOTION":15.50690459,"ECCENTRICITY":0.00076504,"INCLINATION":97.3904,"RA_OF_ASC_NODE":150.9225,"ARG_OF_PERICENTER":167.7672,"MEAN_ANOMALY":192.3767,"EPHEMERIS_TYPE":0,"CLASSIFICATION_TYPE":"U","NORAD_CAT_ID":58274,"ELEMENT_SET_NO":999,"REV_AT_EPOCH":12931,"BSTAR":0.00057156997,"MEAN_MOTION_DOT":0.0003285,"MEAN_MOTION_DDOT":0},{"OBJECT_NAME":"FLOCK 4Q-12","OBJECT_ID":"2023-174V","EPOCH":"2026-03-02T18:44:31.556256","MEAN_MOTION":15.50730179,"ECCENTRICITY":0.00060615,"INCLINATION":97.3899,"RA_OF_ASC_NODE":150.7499,"ARG_OF_PERICENTER":173.9595,"MEAN_ANOMALY":186.1731,"EPHEMERIS_TYPE":0,"CLASSIFICATION_TYPE":"U","NORAD_CAT_ID":58275,"ELEMENT_SET_NO":999,"REV_AT_EPOCH":12932,"BSTAR":0.0013515311,"MEAN_MOTION_DOT":0.00078328,"MEAN_MOTION_DDOT":0},{"OBJECT_NAME":"FLOCK 4Q-28","OBJECT_ID":"2023-174AA","EPOCH":"2026-03-02T17:13:52.452480","MEAN_MOTION":15.48508263,"ECCENTRICITY":0.00072807,"INCLINATION":97.3925,"RA_OF_ASC_NODE":149.9347,"ARG_OF_PERICENTER":173.9095,"MEAN_ANOMALY":186.2246,"EPHEMERIS_TYPE":0,"CLASSIFICATION_TYPE":"U","NORAD_CAT_ID":58280,"ELEMENT_SET_NO":999,"REV_AT_EPOCH":12923,"BSTAR":0.00065492144,"MEAN_MOTION_DOT":0.0003488,"MEAN_MOTION_DDOT":0},{"OBJECT_NAME":"FLOCK 4Q-27","OBJECT_ID":"2023-174AC","EPOCH":"2026-03-02T18:40:50.202912","MEAN_MOTION":15.48489142,"ECCENTRICITY":0.00067133,"INCLINATION":97.3867,"RA_OF_ASC_NODE":149.5418,"ARG_OF_PERICENTER":168.8852,"MEAN_ANOMALY":191.2548,"EPHEMERIS_TYPE":0,"CLASSIFICATION_TYPE":"U","NORAD_CAT_ID":58282,"ELEMENT_SET_NO":999,"REV_AT_EPOCH":12925,"BSTAR":0.00067196454,"MEAN_MOTION_DOT":0.00035765,"MEAN_MOTION_DDOT":0},{"OBJECT_NAME":"FLOCK 4Q-26","OBJECT_ID":"2023-174AE","EPOCH":"2026-03-02T18:15:32.395104","MEAN_MOTION":15.50292634,"ECCENTRICITY":0.00071768,"INCLINATION":97.3919,"RA_OF_ASC_NODE":150.9342,"ARG_OF_PERICENTER":172.3071,"MEAN_ANOMALY":187.8292,"EPHEMERIS_TYPE":0,"CLASSIFICATION_TYPE":"U","NORAD_CAT_ID":58284,"ELEMENT_SET_NO":999,"REV_AT_EPOCH":12930,"BSTAR":0.0006135641,"MEAN_MOTION_DOT":0.00034781,"MEAN_MOTION_DDOT":0},{"OBJECT_NAME":"FLOCK 4Q-31","OBJECT_ID":"2023-174AF","EPOCH":"2026-03-02T18:57:22.727232","MEAN_MOTION":15.4978391,"ECCENTRICITY":0.00077987,"INCLINATION":97.3962,"RA_OF_ASC_NODE":150.6068,"ARG_OF_PERICENTER":174.0423,"MEAN_ANOMALY":186.0922,"EPHEMERIS_TYPE":0,"CLASSIFICATION_TYPE":"U","NORAD_CAT_ID":58285,"ELEMENT_SET_NO":999,"REV_AT_EPOCH":12926,"BSTAR":0.00075079804,"MEAN_MOTION_DOT":0.0004187,"MEAN_MOTION_DDOT":0},{"OBJECT_NAME":"FLOCK 4Q-30","OBJECT_ID":"2023-174AG","EPOCH":"2026-03-02T18:41:28.795200","MEAN_MOTION":15.50010199,"ECCENTRICITY":0.00077163,"INCLINATION":97.3963,"RA_OF_ASC_NODE":150.7749,"ARG_OF_PERICENTER":169.1863,"MEAN_ANOMALY":190.9556,"EPHEMERIS_TYPE":0,"CLASSIFICATION_TYPE":"U","NORAD_CAT_ID":58286,"ELEMENT_SET_NO":999,"REV_AT_EPOCH":12927,"BSTAR":0.00073995746,"MEAN_MOTION_DOT":0.00041592,"MEAN_MOTION_DDOT":0},{"OBJECT_NAME":"PELICAN-1","OBJECT_ID":"2023-174AS","EPOCH":"2026-03-02T18:54:49.518432","MEAN_MOTION":15.63306512,"ECCENTRICITY":0.00088335,"INCLINATION":97.4032,"RA_OF_ASC_NODE":156.2135,"ARG_OF_PERICENTER":253.4736,"MEAN_ANOMALY":106.5552,"EPHEMERIS_TYPE":0,"CLASSIFICATION_TYPE":"U","NORAD_CAT_ID":58296,"ELEMENT_SET_NO":999,"REV_AT_EPOCH":12948,"BSTAR":0.00045527785,"MEAN_MOTION_DOT":0.00041868,"MEAN_MOTION_DDOT":0},{"OBJECT_NAME":"FLOCK 4Q-25","OBJECT_ID":"2023-174AZ","EPOCH":"2026-03-02T18:41:21.469344","MEAN_MOTION":15.55758498,"ECCENTRICITY":0.00053667,"INCLINATION":97.388,"RA_OF_ASC_NODE":151.6053,"ARG_OF_PERICENTER":156.4156,"MEAN_ANOMALY":203.7345,"EPHEMERIS_TYPE":0,"CLASSIFICATION_TYPE":"U","NORAD_CAT_ID":58303,"ELEMENT_SET_NO":999,"REV_AT_EPOCH":12939,"BSTAR":0.00082317319,"MEAN_MOTION_DOT":0.00056986,"MEAN_MOTION_DDOT":0},{"OBJECT_NAME":"FLOCK 4Q-29","OBJECT_ID":"2023-174BA","EPOCH":"2026-03-02T22:22:42.832416","MEAN_MOTION":15.48988331,"ECCENTRICITY":0.00079702,"INCLINATION":97.3949,"RA_OF_ASC_NODE":150.5381,"ARG_OF_PERICENTER":161.6605,"MEAN_ANOMALY":198.4935,"EPHEMERIS_TYPE":0,"CLASSIFICATION_TYPE":"U","NORAD_CAT_ID":58304,"ELEMENT_SET_NO":999,"REV_AT_EPOCH":12927,"BSTAR":0.00071632861,"MEAN_MOTION_DOT":0.00038832,"MEAN_MOTION_DDOT":0},{"OBJECT_NAME":"FLOCK 4Q-22","OBJECT_ID":"2023-174BC","EPOCH":"2026-03-02T18:36:02.632608","MEAN_MOTION":15.51515602,"ECCENTRICITY":0.00068305,"INCLINATION":97.3866,"RA_OF_ASC_NODE":150.5399,"ARG_OF_PERICENTER":165.1619,"MEAN_ANOMALY":194.9835,"EPHEMERIS_TYPE":0,"CLASSIFICATION_TYPE":"U","NORAD_CAT_ID":58306,"ELEMENT_SET_NO":999,"REV_AT_EPOCH":12932,"BSTAR":0.00069703505,"MEAN_MOTION_DOT":0.00041308,"MEAN_MOTION_DDOT":0},{"OBJECT_NAME":"FLOCK 4Q-23","OBJECT_ID":"2023-174BD","EPOCH":"2026-03-02T19:26:39.471648","MEAN_MOTION":15.54577343,"ECCENTRICITY":0.00070738,"INCLINATION":97.3974,"RA_OF_ASC_NODE":152.0957,"ARG_OF_PERICENTER":162.4707,"MEAN_ANOMALY":197.6793,"EPHEMERIS_TYPE":0,"CLASSIFICATION_TYPE":"U","NORAD_CAT_ID":58307,"ELEMENT_SET_NO":999,"REV_AT_EPOCH":12936,"BSTAR":0.00077344273,"MEAN_MOTION_DOT":0.00051259,"MEAN_MOTION_DDOT":0},{"OBJECT_NAME":"FLOCK 4Q-33","OBJECT_ID":"2023-174BE","EPOCH":"2026-03-02T22:49:18.100416","MEAN_MOTION":15.50650289,"ECCENTRICITY":0.00074801,"INCLINATION":97.3891,"RA_OF_ASC_NODE":150.6627,"ARG_OF_PERICENTER":155.6815,"MEAN_ANOMALY":204.4791,"EPHEMERIS_TYPE":0,"CLASSIFICATION_TYPE":"U","NORAD_CAT_ID":58308,"ELEMENT_SET_NO":999,"REV_AT_EPOCH":12933,"BSTAR":0.00062719426,"MEAN_MOTION_DOT":0.00036017,"MEAN_MOTION_DDOT":0},{"OBJECT_NAME":"FLOCK 4Q-35","OBJECT_ID":"2023-174BF","EPOCH":"2026-03-02T22:23:58.671744","MEAN_MOTION":15.49631141,"ECCENTRICITY":0.00082973,"INCLINATION":97.3913,"RA_OF_ASC_NODE":150.8189,"ARG_OF_PERICENTER":168.5317,"MEAN_ANOMALY":191.6125,"EPHEMERIS_TYPE":0,"CLASSIFICATION_TYPE":"U","NORAD_CAT_ID":58309,"ELEMENT_SET_NO":999,"REV_AT_EPOCH":12931,"BSTAR":0.00066227717,"MEAN_MOTION_DOT":0.00036707,"MEAN_MOTION_DDOT":0},{"OBJECT_NAME":"FLOCK 4Q-34","OBJECT_ID":"2023-174BN","EPOCH":"2026-03-02T18:11:11.671008","MEAN_MOTION":15.54752135,"ECCENTRICITY":0.00068947,"INCLINATION":97.3869,"RA_OF_ASC_NODE":151.4477,"ARG_OF_PERICENTER":163.4579,"MEAN_ANOMALY":196.6901,"EPHEMERIS_TYPE":0,"CLASSIFICATION_TYPE":"U","NORAD_CAT_ID":58316,"ELEMENT_SET_NO":999,"REV_AT_EPOCH":12936,"BSTAR":0.0007743879,"MEAN_MOTION_DOT":0.0005165,"MEAN_MOTION_DDOT":0},{"OBJECT_NAME":"FLOCK 4Q-7","OBJECT_ID":"2023-174BQ","EPOCH":"2026-03-02T20:03:40.958208","MEAN_MOTION":15.48652313,"ECCENTRICITY":0.00081788,"INCLINATION":97.3947,"RA_OF_ASC_NODE":150.251,"ARG_OF_PERICENTER":160.3978,"MEAN_ANOMALY":199.7589,"EPHEMERIS_TYPE":0,"CLASSIFICATION_TYPE":"U","NORAD_CAT_ID":58318,"ELEMENT_SET_NO":999,"REV_AT_EPOCH":12925,"BSTAR":0.00068143226,"MEAN_MOTION_DOT":0.00036496,"MEAN_MOTION_DDOT":0}]
